NORAD_CAT_ID,OBJECT_NAME,OBJECT_TYPE,EPOCH,MEAN_MOTION,ECCENTRICITY,INCLINATION,RA_OF_ASC_NODE,ARG_OF_PERICENTER,MEAN_ANOMALY,BSTAR,MEAN_MOTION_DOT,MEAN_MOTION_DDOT,TLE_LINE0,TLE_LINE1,TLE_LINE2,SEMIMAJOR_AXIS,PERIOD,APOGEE,PERIGEE,DECAYED
50163.0,STARLINK-3306,PAYLOAD,2024-07-25 10:28:29,15.08836526,9.39e-05,53.2181,17.8449,69.0927,291.0165,7.8608e-05,9.63e-06,0.0,0 STARLINK-3306,1 50163U 21125H   24207.43645068  .00000963  00000-0  78608-4 0  9998,2 50163  53.2181  17.8449 0000939  69.0927 291.0165 15.08836526146845,6917.891,95.438,540.406,539.106,0.0
50163.0,STARLINK-3306,PAYLOAD,2024-07-25 21:36:11,15.08834852,9.94e-05,53.2177,15.7631,60.7544,299.3548,6.3833e-05,7.28e-06,0.0,0 STARLINK-3306,1 50163U 21125H   24207.90013270  .00000728  00000-0  63833-4 0  9997,2 50163  53.2177  15.7631 0000994  60.7544 299.3548 15.08834852147391,6917.896,95.438,540.449,539.073,0.0
50163.0,STARLINK-3306,PAYLOAD,2024-07-26 10:19:16,15.08840234,0.0001361,53.2214,13.3844,83.326,276.7887,9.4737e-05,1.22e-05,0.0,0 STARLINK-3306,1 50163U 21125H   24208.43005030  .00001220  00000-0  94737-4 0  9996,2 50163  53.2214  13.3844 0001361  83.3260 276.7887 15.08840234147473,6917.88,95.438,540.686,538.803,0.0
50163.0,STARLINK-3306,PAYLOAD,2024-07-26 18:16:11,15.08833918,2.43e-05,53.2191,11.8999,141.6146,218.4864,0.00018348,2.633e-05,0.0,0 STARLINK-3306,1 50163U 21125H   24208.76124743  .00002633  00000-0  18348-3 0  9997,2 50163  53.2191  11.8999 0000243 141.6146 218.4864 15.08833918147042,6917.899,95.438,539.932,539.596,0.0
50163.0,STARLINK-3306,PAYLOAD,2024-07-26 21:26:57,15.08845723,9.2e-05,53.218,11.2991,87.7546,272.3552,0.00017012,2.421e-05,0.0,0 STARLINK-3306,1 50163U 21125H   24208.89372418  .00002421  00000-0  17012-3 0  9997,2 50163  53.2180  11.2991 0000920  87.7546 272.3552 15.08845723147547,6917.863,95.437,540.364,539.091,0.0
50163.0,STARLINK-3306,PAYLOAD,2024-07-27 03:48:29,15.08852303,9.59e-05,53.2198,10.1117,72.2056,287.904,0.00023558,3.465e-05,0.0,0 STARLINK-3306,1 50163U 21125H   24209.15867734  .00003465  00000-0  23558-3 0  9998,2 50163  53.2198  10.1117 0000959  72.2056 287.9040 15.08852303147109,6917.843,95.437,540.371,539.044,0.0
50163.0,STARLINK-3306,PAYLOAD,2024-07-27 19:42:23,15.08829009,0.0001731,53.2192,7.1398,94.2805,265.8385,5.4584e-05,5.81e-06,0.0,0 STARLINK-3306,1 50163U 21125H   24209.82110100  .00000581  00000-0  54584-4 0  9990,2 50163  53.2192   7.1398 0001731  94.2805 265.8385 15.08829009147682,6917.914,95.438,540.976,538.581,0.0
50163.0,STARLINK-3306,PAYLOAD,2024-07-28 03:39:18,15.08841279,0.0001544,53.2191,5.6533,91.5353,268.5816,6.4764e-05,7.43e-06,0.0,0 STARLINK-3306,1 50163U 21125H   24210.15229346  .00000743  00000-0  64764-4 0  9992,2 50163  53.2191   5.6533 0001544  91.5353 268.5816 15.08841279147250,6917.876,95.437,540.81,538.673,0.0
50163.0,STARLINK-3306,PAYLOAD,2024-07-28 17:57:46,15.08837514,0.0001058,53.2178,2.9744,90.532,269.5793,1.2865e-05,-8.3e-07,0.0,0 STARLINK-3306,1 50163U 21125H   24210.74845791 -.00000083  00000-0  12865-4 0  9998,2 50163  53.2178   2.9744 0001058  90.5320 269.5793 15.08837514147344,6917.888,95.438,540.485,539.021,0.0
50163.0,STARLINK-3306,PAYLOAD,2024-07-29 03:30:04,15.08856333,8.67e-05,53.2183,1.1877,82.7908,277.3183,1.4254e-05,-6.1e-07,0.0,0 STARLINK-3306,1 50163U 21125H   24211.14588428 -.00000061  00000-0  14254-4 0  9994,2 50163  53.2183   1.1877 0000867  82.7908 277.3183 15.08856333147407,6917.83,95.437,540.295,539.096,0.0
50163.0,STARLINK-3306,PAYLOAD,2024-07-29 09:51:37,15.08844533,0.0001325,53.2171,359.9996,86.5039,273.6104,3.3205e-05,2.41e-06,0.0,0 STARLINK-3306,1 50163U 21125H   24211.41085195  .00000241  00000-0  33205-4 0  9993,2 50163  53.2171 359.9996 0001325  86.5039 273.6104 15.08844533147442,6917.867,95.437,540.648,538.815,0.0
50163.0,STARLINK-3306,PAYLOAD,2024-07-29 20:59:18,15.08854272,0.0001685,53.2148,357.9205,52.9391,307.1755,0.00027668,4.12e-05,0.0,0 STARLINK-3306,1 50163U 21125H   24211.87452236  .00004120  00000-0  27668-3 0  9992,2 50163  53.2148 357.9205 0001685  52.9391 307.1755 15.08854272147990,6917.837,95.437,540.867,538.536,0.0
50163.0,STARLINK-3306,PAYLOAD,2024-07-30 03:20:51,15.0886111,0.0001852,53.2138,356.7307,82.0284,278.0918,0.00035862,5.427e-05,0.0,0 STARLINK-3306,1 50163U 21125H   24212.13948146  .00005427  00000-0  35862-3 0  9998,2 50163  53.2138 356.7307 0001852  82.0284 278.0918 15.08861110147558,6917.816,95.436,540.962,538.4,0.0
50163.0,STARLINK-3306,PAYLOAD,2024-07-30 19:14:44,15.08829842,0.0001521,53.2172,353.7547,96.2628,263.8538,-0.00012042,-2.203e-05,0.0,0 STARLINK-3306,1 50163U 21125H   24212.80189963 -.00002203  00000-0 -12042-3 0  9992,2 50163  53.2172 353.7547 0001521  96.2628 263.8538 15.08829842147658,6917.911,95.438,540.829,538.724,0.0
50163.0,STARLINK-3306,PAYLOAD,2024-07-31 14:19:21,15.08835077,0.0001202,53.2165,350.1858,98.3787,261.7342,7.6856e-05,9.35e-06,0.0,0 STARLINK-3306,1 50163U 21125H   24213.59677991  .00000935  00000-0  76856-4 0  9994,2 50163  53.2165 350.1858 0001202  98.3787 261.7342 15.08835077148255,6917.895,95.438,540.592,538.929,0.0
50163.0,STARLINK-3306,PAYLOAD,2024-07-31 19:05:30,15.08842366,0.0001193,53.2168,349.2936,95.7503,264.3626,6.2705e-05,7.1e-06,0.0,0 STARLINK-3306,1 50163U 21125H   24213.79549681  .00000710  00000-0  62705-4 0  9999,2 50163  53.2168 349.2936 0001193  95.7503 264.3626 15.08842366147803,6917.873,95.437,540.563,538.913,0.0
50163.0,STARLINK-3306,PAYLOAD,2024-08-01 12:34:45,15.08843108,0.0001234,53.215,346.0239,92.4782,267.6352,0.00043613,6.66e-05,0.0,0 STARLINK-3306,1 50163U 21125H   24214.52413960  .00006660  00000-0  43613-3 0  9997,2 50163  53.2150 346.0239 0001234  92.4782 267.6352 15.08843108148396,6917.871,95.437,540.59,538.882,0.0
50163.0,STARLINK-3306,PAYLOAD,2024-08-01 18:56:17,15.08851752,0.0001658,53.2163,344.8315,117.9748,242.1412,0.00040133,6.107e-05,0.0,0 STARLINK-3306,1 50163U 21125H   24214.78909386  .00006107  00000-0  40133-3 0  9997,2 50163  53.2163 344.8315 0001658 117.9748 242.1412 15.08851752148430,6917.844,95.437,540.856,538.562,0.0
50163.0,STARLINK-3306,PAYLOAD,2024-08-02 01:17:49,15.08868396,0.000157,53.2166,343.6479,105.3486,254.768,0.00065365,0.00010138,0.0,0 STARLINK-3306,1 50163U 21125H   24215.05404676  .00010138  00000-0  65365-3 0  9993,2 50163  53.2166 343.6479 0001570 105.3486 254.7680 15.08868396147992,6917.794,95.436,540.745,538.573,0.0
50163.0,STARLINK-3306,PAYLOAD,2024-08-02 12:25:32,15.08827048,0.0001529,53.2179,341.5653,97.6347,262.4819,-0.00033259,-5.575e-05,0.0,0 STARLINK-3306,1 50163U 21125H   24215.51774124 -.00005575  00000-0 -33259-3 0  9990,2 50163  53.2179 341.5653 0001529  97.6347 262.4819 15.08827048148068,6917.92,95.438,540.843,538.727,0.0
50163.0,STARLINK-3306,PAYLOAD,2024-08-02 14:00:55,15.08826937,0.0001591,53.2183,341.268,93.2103,266.9071,-0.00040207,-6.679e-05,0.0,0 STARLINK-3306,1 50163U 21125H   24215.58398015 -.00006679  00000-0 -40207-3 0  9995,2 50163  53.2183 341.2680 0001591  93.2103 266.9071 15.08826937148550,6917.92,95.438,540.886,538.685,0.0
50163.0,STARLINK-3306,PAYLOAD,2024-08-02 18:47:05,15.08837832,0.0001509,53.218,340.3757,86.4297,273.6867,0.00010348,1.359e-05,0.0,0 STARLINK-3306,1 50163U 21125H   24215.78269954  .00001359  00000-0  10348-3 0  9997,2 50163  53.2180 340.3757 0001509  86.4297 273.6867 15.08837832148104,6917.887,95.438,540.796,538.708,0.0
50163.0,STARLINK-3306,PAYLOAD,2024-08-03 13:51:43,15.08841453,0.0001711,53.219,336.8083,93.9429,266.1759,0.00080402,0.00012532,0.0,0 STARLINK-3306,1 50163U 21125H   24216.57758529  .00012532  00000-0  80402-3 0  9999,2 50163  53.2190 336.8083 0001711  93.9429 266.1759 15.08841453148709,6917.876,95.437,540.925,538.557,0.0
50163.0,STARLINK-3306,PAYLOAD,2024-08-03 17:02:29,15.08848875,0.00017,53.2191,336.2137,89.4711,270.6476,0.00093645,0.00014651,0.0,0 STARLINK-3306,1 50163U 21125H   24216.71006436  .00014651  00000-0  93645-3 0  9995,2 50163  53.2191 336.2137 0001700  89.4711 270.6476 15.08848875148729,6917.853,95.437,540.894,538.542,0.0
50163.0,STARLINK-3306,PAYLOAD,2024-08-04 00:59:24,15.08861498,0.0001678,53.2186,334.7281,91.2179,268.9006,0.0010899,0.0001711,0.0,0 STARLINK-3306,1 50163U 21125H   24217.04126059  .00017110  00000-0  10899-2 0  9998,2 50163  53.2186 334.7281 0001678  91.2179 268.9006 15.08861498148296,6917.815,95.436,540.84,538.519,0.0
50163.0,STARLINK-3306,PAYLOAD,2024-08-04 12:07:07,15.08840894,0.0001734,53.2168,332.6411,93.3047,266.8143,0.00017554,2.507e-05,0.0,0 STARLINK-3306,1 50163U 21125H   24217.50494374  .00002507  00000-0  17554-3 0  9997,2 50163  53.2168 332.6411 0001734  93.3047 266.8143 15.08840894148362,6917.878,95.437,540.942,538.543,0.0
50163.0,STARLINK-3306,PAYLOAD,2024-08-04 13:42:30,15.08843192,0.0001724,53.2191,332.3479,92.4618,267.6571,0.00029308,4.38e-05,0.0,0 STARLINK-3306,1 50163U 21125H   24217.57118407  .00004380  00000-0  29308-3 0  9995,2 50163  53.2191 332.3479 0001724  92.4618 267.6571 15.08843192148854,6917.871,95.437,540.928,538.543,0.0
50163.0,STARLINK-3306,PAYLOAD,2024-08-04 16:53:16,15.08852758,0.0001473,53.2163,331.7518,90.7298,269.3863,0.0021577,0.00034231,0.0,0 STARLINK-3306,1 50163U 21125H   24217.70366308  .00034231  00000-0  21577-2 0  9992,2 50163  53.2163 331.7518 0001473  90.7298 269.3863 15.08852758148396,6917.841,95.437,540.725,538.687,0.0
50163.0,STARLINK-3306,PAYLOAD,2024-08-05 00:50:11,15.08913514,0.0001542,53.2172,330.2572,79.7314,280.3852,0.0046494,0.00074642,0.0,0 STARLINK-3306,1 50163U 21125H   24218.03485351  .00074642  00000-0  46494-2 0  9994,2 50163  53.2172 330.2572 0001542  79.7314 280.3852 15.08913514148448,6917.656,95.433,540.587,538.454,0.0
50163.0,STARLINK-3306,PAYLOAD,2024-08-05 13:33:16,15.08838385,0.0001271,53.2173,327.8859,84.5191,275.5946,0.00039463,5.998e-05,0.0,0 STARLINK-3306,1 50163U 21125H   24218.56477815  .00005998  00000-0  39463-3 0  9995,2 50163  53.2173 327.8859 0001271  84.5191 275.5946 15.08838385148526,6917.885,95.438,540.63,538.871,0.0
